0 COSMOS 1275 DEB
1 13476U 81053FY  13281.97203013  .00001025  00000-0  78739-3 0  1388
2 13476 082.8097 183.3459 0052006 268.0976 222.4380 13.91698311583011
0 COSMOS 1275 DEB
1 13476U 81053FY  13283.10986353  .00000986  00000-0  75687-3 0  1395
2 13476 082.8097 182.4628 0051912 264.7433 163.2115 13.91701108583179
0 COSMOS 1275 DEB
1 13476U 81053FY  13285.77054984  .00000999  00000-0  76655-3 0  1419
2 13476 082.8095 180.3978 0051783 256.8427 173.8844 13.91705575583542
0 COSMOS 1275 DEB
1 13476U 81053FY  13286.77636082  .00001084  00000-0  83342-3 0  1423
2 13476 082.8093 179.6172 0051727 253.8664 173.2398 13.91707172583683
0 COSMOS 1275 DEB
1 13476U 81053FY  13287.78311730  .00001182  00000-0  90915-3 0  1439
2 13476 082.8091 178.8357 0051724 250.8952 177.3293 13.91710392583824
0 COSMOS 1275 DEB
1 13476U 81053FY  13289.16631804  .00001211  00000-0  93161-3 0  1440
2 13476 082.8089 177.7623 0051677 246.7919 267.5326 13.91714661584013
0 COSMOS 1275 DEB
1 13476U 81053FY  13290.44233829  .00001170  00000-0  89962-3 0  1457
2 13476 082.8087 176.7721 0051664 242.9976 180.7601 13.91717574584193
0 COSMOS 1275 DEB
1 13476U 81053FY  13291.44916466  .00001153  00000-0  88674-3 0  1464
2 13476 082.8086 175.9905 0051642 239.9956 185.2681 13.91719835584333
0 COSMOS 1275 DEB
1 13476U 81053FY  13292.45580964  .00001187  00000-0  91314-3 0  1479
2 13476 082.8085 175.2091 0051621 237.0078 188.8623 13.91721955584478
0 COSMOS 1275 DEB
1 13476U 81053FY  13293.45939809  .00001244  00000-0  95728-3 0  1484
2 13476 082.8085 174.4301 0051617 234.0442 177.1350 13.91724296584615
0 COSMOS 1275 DEB
1 13476U 81053FY  13295.13358421  .00001255  00000-0  96559-3 0  1492
2 13476 082.8085 173.1306 0051638 229.0968 285.3203 13.91728247584840
